[{"OBJECT_NAME":"STARLINK-35946","OBJECT_ID":"2025-265G","EPOCH":"2026-03-09T20:11:59.175168","MEAN_MOTION":15.27586457,"ECCENTRICITY":0.00021343,"INCLINATION":43.002,"RA_OF_ASC_NODE":277.3375,"ARG_OF_PERICENTER":265.8621,"MEAN_ANOMALY":94.1987,"EPHEMERIS_TYPE":0,"CLASSIFICATION_TYPE":"U","NORAD_CAT_ID":66522,"ELEMENT_SET_NO":999,"REV_AT_EPOCH":1713,"BSTAR":0.00084174128,"MEAN_MOTION_DOT":0.00022978,"MEAN_MOTION_DDOT":0},{"OBJECT_NAME":"COSMOS 252 DEB","OBJECT_ID":"1968-097CF","EPOCH":"2026-03-09T12:03:06.881472","MEAN_MOTION":13.89760968,"ECCENTRICITY":0.06306282,"INCLINATION":62.7318,"RA_OF_ASC_NODE":125.8805,"ARG_OF_PERICENTER":159.9223,"MEAN_ANOMALY":202.7883,"EPHEMERIS_TYPE":0,"CLASSIFICATION_TYPE":"U","NORAD_CAT_ID":4421,"ELEMENT_SET_NO":999,"REV_AT_EPOCH":54558,"BSTAR":0.0010172608,"MEAN_MOTION_DOT":6.493e-5,"MEAN_MOTION_DDOT":0}]
